ORBCOMM FM24            
1 25478U 98053D   25196.51036786  .00000627  00000+0  25135-3 0  9993
2 25478  45.0073 134.7980 0003770 348.4648  11.6114 14.38145871401521
ORBCOMM FM25            
1 25479U 98053E   25196.89906750  .00000689  00000+0  27171-3 0  9992
2 25479  45.0065 131.2293 0005614  10.3934 349.7030 14.38119042401875
ORBCOMM FM26            
1 25480U 98053F   25196.79036833  .00000524  00000+0  22192-3 0  9995
2 25480  45.0062 128.4088 0006770  30.3386 329.7853 14.37173404401761
ORBCOMM FM27            
1 25481U 98053G   25196.88615916  .00000666  00000+0  26420-3 0  9996
2 25481  45.0047 131.4831 0002372 340.3263  19.7493 14.38149668401804
ORBCOMM FM28            
1 25482U 98053H   25196.92009606  .00000478  00000+0  20181-3 0  9994
2 25482  45.0061  68.7817 0005022  73.8143 286.3258 14.38334182402491
ORBCOMM FM30            
1 25980U 99065A   25196.70758407  .00000472  00000+0  20391-3 0  9994
2 25980  45.0327 314.7150 0007466 162.8573 197.2529 14.37341800338553
ORBCOMM FM31            
1 25981U 99065B   25196.68206215  .00000507  00000+0  21571-3 0  9997
2 25981  45.0236 308.3179 0005374 188.7931 171.2824 14.37280231338105
ORBCOMM FM32            
1 25982U 99065C   25196.53885825  .00000537  00000+0  23005-3 0  9999
2 25982  45.0171 325.7651 0007503 177.4469 182.6418 14.36324692338675
